CRE (WAAS/PRN 138)      
1 28868U 05036A   22205.60450944 -.00000072  00000+0  00000+0 0  9997
2 28868   0.6518  93.4881 0002727  23.3761 295.7329  1.00272269 32176
IOR-W (EGNOS/PRN 126)   
1 28899U 05044A   22205.17966115  .00000010  00000+0  00000+0 0  9995
2 28899   3.5275  37.7124 0002749  97.3567 295.3924  1.00272995 61245
QZS-1 (QZSS/PRN 183)    
1 37158U 10045A   22205.58906991 -.00000211  00000+0  00000+0 0  9995
2 37158  42.3728 132.8766 0763356 270.8614 249.5991  1.00249113 43460
GSAT-8 (GAGAN/PRN 127)  
1 37605U 11022A   22205.46801653  .00000086  00000+0  00000+0 0  9993
2 37605   0.0136  52.8725 0002834 213.9148 258.9513  1.00274604 38948
LUCH 5A (SDCM/PRN 140)  
1 37951U 11074B   22205.57044848 -.00000048  00000+0  00000+0 0  9990
2 37951   5.1103  96.9979 0005305  13.3567 204.3400  1.00275557 38910
SES-5 (EGNOS/PRN 136)   
1 38652U 12036A   22205.24281201  .00000036  00000+0  00000+0 0  9994
2 38652   0.0613 286.4660 0001843 199.7191 268.1298  1.00271058 30206
GSAT-10 (GAGAN/PRN 128) 
1 38779U 12051B   22205.57966361 -.00000163  00000+0  00000+0 0  9996
2 38779   0.0721 103.7436 0001712  67.2917  62.9225  1.00272062 35849
LUCH 5B (SDCM/PRN 125)  
1 38977U 12061A   22205.45380286 -.00000138  00000+0  00000+0 0  9992
2 38977   7.3706  62.3511 0005757  65.4786 321.4142  1.00272337 35906
ASTRA 5B (EGNOS/PRN 123)
1 39617U 14011B   22205.53512544  .00000157  00000+0  00000+0 0  9994
2 39617   0.0302   8.9280 0003397 121.1562  36.2747  1.00269572 30396
LUCH 5V (SDCM/PRN 141)  
1 39727U 14023A   22205.47600359 -.00000267  00000+0  00000+0 0  9997
2 39727   1.5825  75.9969 0003666  71.1446  61.0946  1.00269497548236
GSAT-15 (GAGAN/PRN 139) 
1 41028U 15065A   22205.47574199 -.00000256  00000+0  00000+0 0  9991
2 41028   0.0150  67.8077 0003476  36.5882 102.5447  1.00271144 24537
E 117 W B (WAAS/PRN 131)
1 41589U 16038B   22205.43360323 -.00000009  00000+0  00000+0 0  9998
2 41589   0.0105 134.7212 0000301 324.3609 242.1358  1.00270210 22390
SES-15 (WAAS/PRN 133)   
1 42709U 17026A   22205.35791532  .00000062  00000+0  00000+0 0  9990
2 42709   0.0168   8.5432 0000736 158.0409 135.1676  1.00276095 19867
QZS-2 (QZSS/PRN 184)    
1 42738U 17028A   22205.47824542 -.00000141  00000+0  00000+0 0  9994
2 42738  41.7107 263.6494 0756879 269.5746  82.2615  1.00276783 18873
QZS-3 (QZSS/PRN 189)    
1 42917U 17048A   22205.50952204 -.00000346  00000+0  00000+0 0  9993
2 42917   0.0585 188.1403 0001545 317.8962 106.6179  1.00274643 17981
QZS-4 (QZSS/PRN 185)    
1 42965U 17062A   22204.27279310 -.00000366  00000+0  00000+0 0  9997
2 42965  40.7623   1.6562 0746392 268.6068 264.6406  1.00298904 17523
GALAXY 30 (WAAS/PRN 135)
1 46114U 20056C   22205.58465115  .00000039  00000+0  00000+0 0  9995
2 46114   0.0182  61.5100 0001692  63.5927 262.6537  1.00274153  7014
